ORBCOMM-X [-]           
1 21576U 91050C   24089.44702747  .00000773  00000+0  24683-3 0  9996
2 21576  98.3962 157.9399 0004893  92.3341 267.8409 14.42420807717989
ORBCOMM FM01 [-]        
1 23545U 95017A   24089.45012614  .00007511  00000+0  10214-2 0  9990
2 23545  69.9660  93.5668 0009087 275.7758  84.2354 14.79105399546503
ORBCOMM FM10 [-]        
1 25113U 97084B   24089.42803236  .00002632  00000+0  83505-3 0  9997
2 25113  45.0168 338.8221 0004791 128.4185 231.7095 14.42168172552235
ORBCOMM FM11 [+]        
1 25114U 97084C   24089.37399047  .00002719  00000+0  86301-3 0  9995
2 25114  45.0153 339.1154 0005474 129.0990 231.0347 14.42051986377196
ORBCOMM FM12 [-]        
1 25115U 97084D   24089.40201819  .00002326  00000+0  74534-3 0  9998
2 25115  45.0158 338.6634 0004512 128.5716 231.5538 14.42020165376990
